{
  "type": "FeatureCollection",
  "features": [
    {
      "type": "Feature",
      "properties": {
        "norad_id": 35435,
        "name": "COSMOS 2251 DEB",
        "group": "cosmos-2251-debris",
        "lat": -63.66417667537643,
        "lon": -64.99197999785534,
        "alt_km": 638.4078029763368,
        "timestamp": "2025-12-25T03:55:56.763372+00:00",
        "meta_object_name": "COSMOS 2251 DEB",
        "meta_object_id": "1993-036AKD",
        "meta_epoch": "2025-12-24T14:06:56.153088",
        "meta_mean_motion": 14.7881181,
        "meta_eccentricity": 0.0006651,
        "meta_inclination": 74.0105,
        "meta_ra_of_asc_node": 80.7425,
        "meta_arg_of_pericenter": 178.2322,
        "meta_mean_anomaly": 246.8342,
        "meta_ephemeris_type": 0,
        "meta_classification_type": "U",
        "meta_norad_cat_id": 35435,
        "meta_element_set_no": 999,
        "meta_rev_at_epoch": 87714,
        "meta_bstar": 0.00218,
        "meta_mean_motion_dot": 0.00016047,
        "meta_mean_motion_ddot": 0,
        "tle_line1": "1 35435U 93036AKD 25358.58814992  .00016047  00000+0  21800-2 0  9990",
        "tle_line2": "2 35435  74.0105  80.7425 0006651 178.2322 246.8342 14.78811810877143"
      },
      "geometry": {
        "type": "Point",
        "coordinates": [
          -64.99197999785534,
          -63.66417667537643
        ]
      }
    },
    {
      "type": "Feature",
      "properties": {
        "norad_id": 35439,
        "name": "COSMOS 2251 DEB",
        "group": "cosmos-2251-debris",
        "lat": -52.81944749362315,
        "lon": 91.25572849560433,
        "alt_km": 762.7025719805379,
        "timestamp": "2025-12-25T03:55:56.763383+00:00",
        "meta_object_name": "COSMOS 2251 DEB",
        "meta_object_id": "1993-036AKH",
        "meta_epoch": "2025-12-23T01:03:41.280192",
        "meta_mean_motion": 13.9285581,
        "meta_eccentricity": 0.02428241,
        "meta_inclination": 74.0195,
        "meta_ra_of_asc_node": 117.083,
        "meta_arg_of_pericenter": 284.1415,
        "meta_mean_anomaly": 194.5054,
        "meta_ephemeris_type": 0,
        "meta_classification_type": "U",
        "meta_norad_cat_id": 35439,
        "meta_element_set_no": 999,
        "meta_rev_at_epoch": 84104,
        "meta_bstar": 0.0017241175,
        "meta_mean_motion_dot": 2.822e-05,
        "meta_mean_motion_ddot": 0,
        "tle_line1": "1 35439U 93036AKH 25357.04422778  .00002822  00000+0  17241-2 0  9991",
        "tle_line2": "2 35439  74.0195 117.0830 0242824 284.1415 194.5054 13.92855810841046"
      },
      "geometry": {
        "type": "Point",
        "coordinates": [
          91.25572849560433,
          -52.81944749362315
        ]
      }
    },
    {
      "type": "Feature",
      "properties": {
        "norad_id": 35440,
        "name": "COSMOS 2251 DEB",
        "group": "cosmos-2251-debris",
        "lat": 9.51811801472957,
        "lon": 0.7964259477456057,
        "alt_km": 709.1056888542716,
        "timestamp": "2025-12-25T03:55:56.763394+00:00",
        "meta_object_name": "COSMOS 2251 DEB",
        "meta_object_id": "1993-036AKJ",
        "meta_epoch": "2025-12-22T19:34:52.667040",
        "meta_mean_motion": 14.68858524,
        "meta_eccentricity": 0.00697181,
        "meta_inclination": 74.0136,
        "meta_ra_of_asc_node": 188.1002,
        "meta_arg_of_pericenter": 326.674,
        "meta_mean_anomaly": 33.0049,
        "meta_ephemeris_type": 0,
        "meta_classification_type": "U",
        "meta_norad_cat_id": 35440,
        "meta_element_set_no": 999,
        "meta_rev_at_epoch": 68913,
        "meta_bstar": 0.00037964995,
        "meta_mean_motion_dot": 2.268e-05,
        "meta_mean_motion_ddot": 0,
        "tle_line1": "1 35440U 93036AKJ 25356.81588735  .00002268  00000+0  37965-3 0  9993",
        "tle_line2": "2 35440  74.0136 188.1002 0069718 326.6740  33.0049 14.68858524689135"
      },
      "geometry": {
        "type": "Point",
        "coordinates": [
          0.7964259477456057,
          9.51811801472957
        ]
      }
    },
    {
      "type": "Feature",
      "properties": {
        "norad_id": 35441,
        "name": "COSMOS 2251 DEB",
        "group": "cosmos-2251-debris",
        "lat": -27.754835832498486,
        "lon": 103.04137505470713,
        "alt_km": 670.8723102031272,
        "timestamp": "2025-12-25T03:55:56.763404+00:00",
        "meta_object_name": "COSMOS 2251 DEB",
        "meta_object_id": "1993-036AKK",
        "meta_epoch": "2025-12-24T12:12:34.900128",
        "meta_mean_motion": 14.62759756,
        "meta_eccentricity": 0.0036013,
        "meta_inclination": 74.1345,
        "meta_ra_of_asc_node": 275.6818,
        "meta_arg_of_pericenter": 167.8992,
        "meta_mean_anomaly": 192.3049,
        "meta_ephemeris_type": 0,
        "meta_classification_type": "U",
        "meta_norad_cat_id": 35441,
        "meta_element_set_no": 999,
        "meta_rev_at_epoch": 87602,
        "meta_bstar": 0.0014951,
        "meta_mean_motion_dot": 7.673e-05,
        "meta_mean_motion_ddot": 0,
        "tle_line1": "1 35441U 93036AKK 25358.50873727  .00007673  00000+0  14951-2 0  9994",
        "tle_line2": "2 35441  74.1345 275.6818 0036013 167.8992 192.3049 14.62759756876028"
      },
      "geometry": {
        "type": "Point",
        "coordinates": [
          103.04137505470713,
          -27.754835832498486
        ]
      }
    },
    {
      "type": "Feature",
      "properties": {
        "norad_id": 35442,
        "name": "COSMOS 2251 DEB",
        "group": "cosmos-2251-debris",
        "lat": -7.180629731815934,
        "lon": 72.4055043999736,
        "alt_km": 615.7820546329694,
        "timestamp": "2025-12-25T03:55:56.763414+00:00",
        "meta_object_name": "COSMOS 2251 DEB",
        "meta_object_id": "1993-036AKL",
        "meta_epoch": "2025-12-23T11:32:24.012672",
        "meta_mean_motion": 14.8478997,
        "meta_eccentricity": 0.000395,
        "meta_inclination": 74.0271,
        "meta_ra_of_asc_node": 77.8141,
        "meta_arg_of_pericenter": 44.74,
        "meta_mean_anomaly": 315.4097,
        "meta_ephemeris_type": 0,
        "meta_classification_type": "U",
        "meta_norad_cat_id": 35442,
        "meta_element_set_no": 999,
        "meta_rev_at_epoch": 87512,
        "meta_bstar": 0.0019664343,
        "meta_mean_motion_dot": 0.00016699,
        "meta_mean_motion_ddot": 0,
        "tle_line1": "1 35442U 93036AKL 25357.48083348  .00016699  00000+0  19664-2 0  9997",
        "tle_line2": "2 35442  74.0271  77.8141 0003950  44.7400 315.4097 14.84789970875124"
      },
      "geometry": {
        "type": "Point",
        "coordinates": [
          72.4055043999736,
          -7.180629731815934
        ]
      }
    },
    {
      "type": "Feature",
      "properties": {
        "norad_id": 35443,
        "name": "COSMOS 2251 DEB",
        "group": "cosmos-2251-debris",
        "lat": -45.213644687561256,
        "lon": 143.1917761222099,
        "alt_km": 620.1081106730771,
        "timestamp": "2025-12-25T03:55:56.763425+00:00",
        "meta_object_name": "COSMOS 2251 DEB",
        "meta_object_id": "1993-036AKM",
        "meta_epoch": "2025-12-24T20:30:49.002048",
        "meta_mean_motion": 14.9775449,
        "meta_eccentricity": 0.0072936,
        "meta_inclination": 73.9878,
        "meta_ra_of_asc_node": 307.0021,
        "meta_arg_of_pericenter": 85.9283,
        "meta_mean_anomaly": 275.0235,
        "meta_ephemeris_type": 0,
        "meta_classification_type": "U",
        "meta_norad_cat_id": 35443,
        "meta_element_set_no": 999,
        "meta_rev_at_epoch": 87059,
        "meta_bstar": 0.0039629,
        "meta_mean_motion_dot": 0.00049417,
        "meta_mean_motion_ddot": 0,
        "tle_line1": "1 35443U 93036AKM 25358.85473382  .00049417  00000+0  39629-2 0  9998",
        "tle_line2": "2 35443  73.9878 307.0021 0072936  85.9283 275.0235 14.97754490870591"
      },
      "geometry": {
        "type": "Point",
        "coordinates": [
          143.1917761222099,
          -45.213644687561256
        ]
      }
    },
    {
      "type": "Feature",
      "properties": {
        "norad_id": 35445,
        "name": "COSMOS 2251 DEB",
        "group": "cosmos-2251-debris",
        "lat": 5.869172176759396,
        "lon": -81.99609800457094,
        "alt_km": 595.6031103032728,
        "timestamp": "2025-12-25T03:55:56.763436+00:00",
        "meta_object_name": "COSMOS 2251 DEB",
        "meta_object_id": "1993-036AKP",
        "meta_epoch": "2025-12-24T19:40:46.419744",
        "meta_mean_motion": 14.59408318,
        "meta_eccentricity": 0.0143957,
        "meta_inclination": 74.0386,
        "meta_ra_of_asc_node": 276.9734,
        "meta_arg_of_pericenter": 1.0045,
        "meta_mean_anomaly": 359.138,
        "meta_ephemeris_type": 0,
        "meta_classification_type": "U",
        "meta_norad_cat_id": 35445,
        "meta_element_set_no": 999,
        "meta_rev_at_epoch": 87505,
        "meta_bstar": 0.0021998,
        "meta_mean_motion_dot": 0.00012035,
        "meta_mean_motion_ddot": 0,
        "tle_line1": "1 35445U 93036AKP 25358.81998171  .00012035  00000+0  21998-2 0  9990",
        "tle_line2": "2 35445  74.0386 276.9734 0143957   1.0045 359.1380 14.59408318875055"
      },
      "geometry": {
        "type": "Point",
        "coordinates": [
          -81.99609800457094,
          5.869172176759396
        ]
      }
    }
  ]
}